[{"OBJECT_NAME":"OBJECT A","OBJECT_ID":"2024-203A","EPOCH":"2026-03-09T23:31:20.812800","MEAN_MOTION":15.27300571,"ECCENTRICITY":0.00108989,"INCLINATION":97.4288,"RA_OF_ASC_NODE":139.5608,"ARG_OF_PERICENTER":322.6893,"MEAN_ANOMALY":37.3588,"EPHEMERIS_TYPE":0,"CLASSIFICATION_TYPE":"U","NORAD_CAT_ID":61869,"ELEMENT_SET_NO":999,"REV_AT_EPOCH":7380,"BSTAR":0.00061472876,"MEAN_MOTION_DOT":0.00016411,"MEAN_MOTION_DDOT":0},{"OBJECT_NAME":"STARLINK-34113","OBJECT_ID":"2025-101S","EPOCH":"2026-03-09T04:14:12.566976","MEAN_MOTION":15.27569228,"ECCENTRICITY":0.00026479,"INCLINATION":43.0092,"RA_OF_ASC_NODE":1.1306,"ARG_OF_PERICENTER":277.4839,"MEAN_ANOMALY":82.5712,"EPHEMERIS_TYPE":0,"CLASSIFICATION_TYPE":"U","NORAD_CAT_ID":64010,"ELEMENT_SET_NO":999,"REV_AT_EPOCH":4697,"BSTAR":0.00066187856,"MEAN_MOTION_DOT":0.0001799,"MEAN_MOTION_DDOT":0}]
